start=new Date('2022-06-03T00:00:00.000Z').valueOf();
sats=[{"REV_AT_EPOCH":"2214","EPHEMERIS_TYPE":"0","SITE":"AFETR","FILE":"3477768","ELEMENT_SET_NO":"999","MEAN_MOTION_DOT":"-0.00002711","COUNTRY_CODE":"US","PERIOD":"95.437","INCLINATION":"53.2208","TLE_LINE1":"1 51135U 22005AH  22153.85503467 -.00002711  00000-0 -15225-3 0  9996","MEAN_MOTION":"15.08848524","BSTAR":"-0.00015225000000","GP_ID":"205185301","NORAD_CAT_ID":"51135","TLE_LINE2":"2 51135  53.2208 355.4904 0001977  54.7444 305.3733 15.08848524 22147","OBJECT_ID":"2022-005AH","REF_FRAME":"TEME","RA_OF_ASC_NODE":"355.4904","OBJECT_NAME":"STARLINK-3363","ECCENTRICITY":"0.00019770","MEAN_ANOMALY":"305.3733","CENTER_NAME":"EARTH","EPOCH":"2022-06-02T20:31:14.995488","TIME_SYSTEM":"UTC","MEAN_MOTION_DDOT":"0.0000000000000","DECAY_DATE":null,"OBJECT_TYPE":"PAYLOAD","ARG_OF_PERICENTER":"54.7444","MEAN_ELEMENT_THEORY":"SGP4","RCS_SIZE":"LARGE","LAUNCH_DATE":"2022-01-19","SEMIMAJOR_AXIS":"6917.854","CLASSIFICATION_TYPE":"U","APOAPSIS":"541.087","PERIAPSIS":"538.352"},{"SITE":"AFETR","EPHEMERIS_TYPE":"0","FILE":"3477766","ELEMENT_SET_NO":"999","REV_AT_EPOCH":"2215","MEAN_MOTION":"15.08840090","GP_ID":"205185283","BSTAR":"-0.00015091000000","MEAN_MOTION_DOT":"-0.00002689","COUNTRY_CODE":"US","PERIOD":"95.438","INCLINATION":"53.2187","TLE_LINE1":"1 51136U 22005AJ  22153.85599877 -.00002689  00000-0 -15091-3 0  9992","ECCENTRICITY":"0.00021640","MEAN_ANOMALY":"300.0340","CENTER_NAME":"EARTH","EPOCH":"2022-06-02T20:32:38.293728","TLE_LINE2":"2 51136  53.2187 355.4904 0002164  60.0867 300.0340 15.08840090 22159","NORAD_CAT_ID":"51136","REF_FRAME":"TEME","OBJECT_ID":"2022-005AJ","RA_OF_ASC_NODE":"355.4904","OBJECT_NAME":"STARLINK-3253","LAUNCH_DATE":"2022-01-19","RCS_SIZE":"LARGE","SEMIMAJOR_AXIS":"6917.880","CLASSIFICATION_TYPE":"U","APOAPSIS":"541.242","PERIAPSIS":"538.248","TIME_SYSTEM":"UTC","MEAN_MOTION_DDOT":"0.0000000000000","DECAY_DATE":null,"OBJECT_TYPE":"PAYLOAD","ARG_OF_PERICENTER":"60.0867","MEAN_ELEMENT_THEORY":"SGP4"},{"DECAY_DATE":null,"OBJECT_TYPE":"PAYLOAD","MEAN_MOTION_DDOT":"0.0000000000000","ARG_OF_PERICENTER":"43.7054","MEAN_ELEMENT_THEORY":"SGP4","TIME_SYSTEM":"UTC","PERIAPSIS":"538.407","APOAPSIS":"541.094","LAUNCH_DATE":"2022-01-19","SEMIMAJOR_AXIS":"6917.885","RCS_SIZE":"LARGE","CLASSIFICATION_TYPE":"U","OBJECT_NAME":"STARLINK-3180","RA_OF_ASC_NODE":"355.5235","OBJECT_ID":"2022-005AK","REF_FRAME":"TEME","NORAD_CAT_ID":"51137","TLE_LINE2":"2 51137  53.2200 355.5235 0001942  43.7054 316.4092 15.08838377 22142","CENTER_NAME":"EARTH","EPOCH":"2022-06-02T20:15:21.277728","MEAN_ANOMALY":"316.4092","ECCENTRICITY":"0.00019420","TLE_LINE1":"1 51137U 22005AK  22153.84399627 -.00000789  00000-0 -31500-4 0  9996","INCLINATION":"53.2200","COUNTRY_CODE":"US","PERIOD":"95.438","MEAN_MOTION_DOT":"-0.00000789","BSTAR":"-0.00003150000000","GP_ID":"205185346","MEAN_MOTION":"15.08838377","REV_AT_EPOCH":"2214","ELEMENT_SET_NO":"999","FILE":"3477770","SITE":"AFETR","EPHEMERIS_TYPE":"0"},{"ELEMENT_SET_NO":"999","FILE":"3477769","SITE":"AFETR","EPHEMERIS_TYPE":"0","REV_AT_EPOCH":"2214","BSTAR":"-0.00002730000000","GP_ID":"205185821","MEAN_MOTION":"15.08840602","TLE_LINE1":"1 51138U 22005AL  22153.85135762 -.00000723  00000-0 -27300-4 0  9997","INCLINATION":"53.2178","COUNTRY_CODE":"US","PERIOD":"95.438","MEAN_MOTION_DOT":"-0.00000723","CENTER_NAME":"EARTH","EPOCH":"2022-06-02T20:25:57.298368","ECCENTRICITY":"0.00018980","MEAN_ANOMALY":"298.0128","RA_OF_ASC_NODE":"355.4965","OBJECT_NAME":"STARLINK-3177","OBJECT_ID":"2022-005AL","REF_FRAME":"TEME","TLE_LINE2":"2 51138  53.2178 355.4965 0001898  62.1056 298.0128 15.08840602 22142","NORAD_CAT_ID":"51138","PERIAPSIS":"538.431","APOAPSIS":"541.057","RCS_SIZE":"LARGE","LAUNCH_DATE":"2022-01-19","CLASSIFICATION_TYPE":"U","SEMIMAJOR_AXIS":"6917.879","MEAN_MOTION_DDOT":"0.0000000000000","DECAY_DATE":null,"OBJECT_TYPE":"PAYLOAD","MEAN_ELEMENT_THEORY":"SGP4","ARG_OF_PERICENTER":"62.1056","TIME_SYSTEM":"UTC"},{"ARG_OF_PERICENTER":"56.4502","MEAN_ELEMENT_THEORY":"SGP4","DECAY_DATE":null,"MEAN_MOTION_DDOT":"0.0000000000000","OBJECT_TYPE":"PAYLOAD","TIME_SYSTEM":"UTC","PERIAPSIS":"538.438","RCS_SIZE":"LARGE","LAUNCH_DATE":"2022-01-19","CLASSIFICATION_TYPE":"U","SEMIMAJOR_AXIS":"6917.871","APOAPSIS":"541.034","OBJECT_ID":"2022-005AM","REF_FRAME":"TEME","OBJECT_NAME":"STARLINK-3172","RA_OF_ASC_NODE":"356.1473","TLE_LINE2":"2 51139  53.2194 356.1473 0001876  56.4502 303.6669 15.08843144 21013","NORAD_CAT_ID":"51139","EPOCH":"2022-06-02T16:53:59.027424","CENTER_NAME":"EARTH","ECCENTRICITY":"0.00018760","MEAN_ANOMALY":"303.6669","INCLINATION":"53.2194","TLE_LINE1":"1 51139U 22005AM  22153.70415541  .00000155  00000-0  27819-4 0  9990","MEAN_MOTION_DOT":"0.00000155","PERIOD":"95.437","COUNTRY_CODE":"US","MEAN_MOTION":"15.08843144","BSTAR":"0.00002781900000","GP_ID":"205214134","REV_AT_EPOCH":"2101","ELEMENT_SET_NO":"999","EPHEMERIS_TYPE":"0","SITE":"AFETR","FILE":"3477983"},{"CENTER_NAME":"EARTH","EPOCH":"2022-06-02T20:20:39.097536","ECCENTRICITY":"0.00020080","MEAN_ANOMALY":"312.8071","OBJECT_ID":"2022-005AN","REF_FRAME":"TEME","RA_OF_ASC_NODE":"355.5158","OBJECT_NAME":"STARLINK-3175","NORAD_CAT_ID":"51140","TLE_LINE2":"2 51140  53.2182 355.5158 0002008  47.3090 312.8071 15.08837307 22142","PERIAPSIS":"538.365","LAUNCH_DATE":"2022-01-19","RCS_SIZE":"LARGE","CLASSIFICATION_TYPE":"U","SEMIMAJOR_AXIS":"6917.889","APOAPSIS":"541.143","DECAY_DATE":null,"OBJECT_TYPE":"PAYLOAD","MEAN_MOTION_DDOT":"0.0000000000000","ARG_OF_PERICENTER":"47.3090","MEAN_ELEMENT_THEORY":"SGP4","TIME_SYSTEM":"UTC","ELEMENT_SET_NO":"999","SITE":"AFETR","EPHEMERIS_TYPE":"0","FILE":"3477784","REV_AT_EPOCH":"2214","MEAN_MOTION":"15.08837307","BSTAR":"0.00003260500000","GP_ID":"205185445","INCLINATION":"53.2182","TLE_LINE1":"1 51140U 22005AN  22153.84767474  .00000231  00000-0  32605-4 0  9996","MEAN_MOTION_DOT":"0.00000231","COUNTRY_CODE":"US","PERIOD":"95.438"},{"GP_ID":"205185324","BSTAR":"-0.00001727100000","MEAN_MOTION":"15.08840415","TLE_LINE1":"1 51141U 22005AP  22153.82927791 -.00000563  00000-0 -17271-4 0  9997","INCLINATION":"53.2204","PERIOD":"95.438","COUNTRY_CODE":"US","MEAN_MOTION_DOT":"-0.00000563","ELEMENT_SET_NO":"999","FILE":"3477769","EPHEMERIS_TYPE":"0","SITE":"AFETR","REV_AT_EPOCH":"2214","PERIAPSIS":"538.388","APOAPSIS":"541.100","RCS_SIZE":"LARGE","LAUNCH_DATE":"2022-01-19","SEMIMAJOR_AXIS":"6917.879","CLASSIFICATION_TYPE":"U","MEAN_ELEMENT_THEORY":"SGP4","ARG_OF_PERICENTER":"59.8235","DECAY_DATE":null,"MEAN_MOTION_DDOT":"0.0000000000000","OBJECT_TYPE":"PAYLOAD","TIME_SYSTEM":"UTC","EPOCH":"2022-06-02T19:54:09.611424","CENTER_NAME":"EARTH","MEAN_ANOMALY":"300.2951","ECCENTRICITY":"0.00019600","RA_OF_ASC_NODE":"355.5879","OBJECT_NAME":"STARLINK-3179","REF_FRAME":"TEME","OBJECT_ID":"2022-005AP","TLE_LINE2":"2 51141  53.2204 355.5879 0001960  59.8235 300.2951 15.08840415 22145","NORAD_CAT_ID":"51141"},{"CENTER_NAME":"EARTH","EPOCH":"2022-06-02T19:59:32.292960","ECCENTRICITY":"0.00016260","MEAN_ANOMALY":"339.5833","OBJECT_ID":"2022-005AQ","REF_FRAME":"TEME","OBJECT_NAME":"STARLINK-3369","RA_OF_ASC_NODE":"345.6502","TLE_LINE2":"2 51142  53.2246 345.6502 0001626  20.5227 339.5833 15.13844690 22318","NORAD_CAT_ID":"51142","PERIAPSIS":"523.368","SEMIMAJOR_AXIS":"6902.625","LAUNCH_DATE":"2022-01-19","RCS_SIZE":"LARGE","CLASSIFICATION_TYPE":"U","APOAPSIS":"525.613","OBJECT_TYPE":"PAYLOAD","DECAY_DATE":null,"MEAN_MOTION_DDOT":"0.0000000000000","ARG_OF_PERICENTER":"20.5227","MEAN_ELEMENT_THEORY":"SGP4","TIME_SYSTEM":"UTC","ELEMENT_SET_NO":"999","EPHEMERIS_TYPE":"0","SITE":"AFETR","FILE":"3477770","REV_AT_EPOCH":"2231","MEAN_MOTION":"15.13844690","GP_ID":"205185343","BSTAR":"-0.00499630000000","INCLINATION":"53.2246","TLE_LINE1":"1 51142U 22005AQ  22153.83301265 -.00090527  00000-0 -49963-2 0  9991","MEAN_MOTION_DOT":"-0.00090527","COUNTRY_CODE":"US","PERIOD":"95.122"},{"TIME_SYSTEM":"UTC","MEAN_MOTION_DDOT":"0.0000000000000","DECAY_DATE":null,"OBJECT_TYPE":"PAYLOAD","MEAN_ELEMENT_THEORY":"SGP4","ARG_OF_PERICENTER":"37.9046","APOAPSIS":"541.181","LAUNCH_DATE":"2022-01-19","RCS_SIZE":"LARGE","SEMIMAJOR_AXIS":"6917.979","CLASSIFICATION_TYPE":"U","PERIAPSIS":"538.508","TLE_LINE2":"2 51143  53.2181   5.3810 0001932  37.9046 322.2082 15.08807576 20892","NORAD_CAT_ID":"51143","OBJECT_NAME":"STARLINK-3184","RA_OF_ASC_NODE":"5.3810","REF_FRAME":"TEME","OBJECT_ID":"2022-005AR","ECCENTRICITY":"0.00019320","MEAN_ANOMALY":"322.2082","CENTER_NAME":"EARTH","EPOCH":"2022-06-02T21:07:02.069184","COUNTRY_CODE":"US","PERIOD":"95.440","MEAN_MOTION_DOT":"0.00005232","TLE_LINE1":"1 51143U 22005AR  22153.87988506  .00005232  00000-0  34687-3 0  9990","INCLINATION":"53.2181","GP_ID":"205213634","BSTAR":"0.00034687000000","MEAN_MOTION":"15.08807576","REV_AT_EPOCH":"2089","FILE":"3477983","EPHEMERIS_TYPE":"0","SITE":"AFETR","ELEMENT_SET_NO":"999"},{"ECCENTRICITY":"0.00021290","MEAN_ANOMALY":"298.6777","CENTER_NAME":"EARTH","EPOCH":"2022-06-02T19:59:26.845440","NORAD_CAT_ID":"51144","TLE_LINE2":"2 51144  53.2194 355.5712 0002129  61.4430 298.6777 15.08848573 22145","OBJECT_ID":"2022-005AS","REF_FRAME":"TEME","RA_OF_ASC_NODE":"355.5712","OBJECT_NAME":"STARLINK-3185","SEMIMAJOR_AXIS":"6917.854","LAUNCH_DATE":"2022-01-19","RCS_SIZE":"LARGE","CLASSIFICATION_TYPE":"U","APOAPSIS":"541.192","PERIAPSIS":"538.246","TIME_SYSTEM":"UTC","DECAY_DATE":null,"OBJECT_TYPE":"PAYLOAD","MEAN_MOTION_DDOT":"0.0000000000000","MEAN_ELEMENT_THEORY":"SGP4","ARG_OF_PERICENTER":"61.4430","SITE":"AFETR","EPHEMERIS_TYPE":"0","FILE":"3477771","ELEMENT_SET_NO":"999","REV_AT_EPOCH":"2214","MEAN_MOTION":"15.08848573","GP_ID":"205185358","BSTAR":"0.00006752800000","MEAN_MOTION_DOT":"0.00000787","COUNTRY_CODE":"US","PERIOD":"95.437","INCLINATION":"53.2194","TLE_LINE1":"1 51144U 22005AS  22153.83294960  .00000787  00000-0  67528-4 0  9992"}];
